NAVSTAR 77 (USA 289)    
1 43873U 18109A   24055.46877396  .00000007  00000+0  00000+0 0  9995
2 43873  55.2513 125.5214 0028861 194.3894 207.4535  2.00574506 38153
